SENTINEL-6              
1 46984U 20086A   24250.82098894 -.00000066  00000+0 -21779-4 0  9991
2 46984  66.0429  41.7145 0007780 269.3783  90.6340 12.80931302177402
